[{"OBJECT_NAME":"ONEWEB-0400","OBJECT_ID":"2021-132M","EPOCH":"2026-02-27T05:10:18.366240","MEAN_MOTION":13.1868584,"ECCENTRICITY":0.00019888,"INCLINATION":87.9245,"RA_OF_ASC_NODE":357.2786,"ARG_OF_PERICENTER":82.5779,"MEAN_ANOMALY":277.5579,"EPHEMERIS_TYPE":0,"CLASSIFICATION_TYPE":"U","NORAD_CAT_ID":50480,"ELEMENT_SET_NO":999,"REV_AT_EPOCH":20711,"BSTAR":2.3609435e-5,"MEAN_MOTION_DOT":2.2e-7,"MEAN_MOTION_DDOT":0},{"OBJECT_NAME":"ONEWEB-0401","OBJECT_ID":"2021-132N","EPOCH":"2026-02-27T06:14:25.311552","MEAN_MOTION":13.18686481,"ECCENTRICITY":0.00016263,"INCLINATION":87.9245,"RA_OF_ASC_NODE":357.2649,"ARG_OF_PERICENTER":81.4463,"MEAN_ANOMALY":278.6853,"EPHEMERIS_TYPE":0,"CLASSIFICATION_TYPE":"U","NORAD_CAT_ID":50481,"ELEMENT_SET_NO":999,"REV_AT_EPOCH":20712,"BSTAR":7.5314305e-5,"MEAN_MOTION_DOT":4.3e-7,"MEAN_MOTION_DDOT":0},{"OBJECT_NAME":"ONEWEB-0402","OBJECT_ID":"2021-132P","EPOCH":"2026-02-27T05:22:10.392960","MEAN_MOTION":13.18686454,"ECCENTRICITY":0.00012868,"INCLINATION":87.9244,"RA_OF_ASC_NODE":357.2638,"ARG_OF_PERICENTER":86.2258,"MEAN_ANOMALY":273.9021,"EPHEMERIS_TYPE":0,"CLASSIFICATION_TYPE":"U","NORAD_CAT_ID":50482,"ELEMENT_SET_NO":999,"REV_AT_EPOCH":20714,"BSTAR":-5.5757021e-5,"MEAN_MOTION_DOT":-9.0e-8,"MEAN_MOTION_DDOT":0},{"OBJECT_NAME":"ONEWEB-0403","OBJECT_ID":"2021-132Q","EPOCH":"2026-02-27T05:57:48.376512","MEAN_MOTION":13.18685848,"ECCENTRICITY":0.00018414,"INCLINATION":87.9244,"RA_OF_ASC_NODE":357.2818,"ARG_OF_PERICENTER":75.7006,"MEAN_ANOMALY":284.433,"EPHEMERIS_TYPE":0,"CLASSIFICATION_TYPE":"U","NORAD_CAT_ID":50483,"ELEMENT_SET_NO":999,"REV_AT_EPOCH":20710,"BSTAR":1.0863682e-5,"MEAN_MOTION_DOT":1.7e-7,"MEAN_MOTION_DDOT":0},{"OBJECT_NAME":"ONEWEB-0404","OBJECT_ID":"2021-132R","EPOCH":"2026-02-27T05:38:47.375520","MEAN_MOTION":13.11419175,"ECCENTRICITY":0.00019208,"INCLINATION":87.8845,"RA_OF_ASC_NODE":42.9354,"ARG_OF_PERICENTER":74.3598,"MEAN_ANOMALY":285.7742,"EPHEMERIS_TYPE":0,"CLASSIFICATION_TYPE":"U","NORAD_CAT_ID":50484,"ELEMENT_SET_NO":999,"REV_AT_EPOCH":20128,"BSTAR":0.00070038911,"MEAN_MOTION_DOT":2.61e-6,"MEAN_MOTION_DDOT":0},{"OBJECT_NAME":"ONEWEB-0405","OBJECT_ID":"2021-132S","EPOCH":"2026-02-27T06:19:10.695072","MEAN_MOTION":13.18684943,"ECCENTRICITY":0.00016267,"INCLINATION":87.9243,"RA_OF_ASC_NODE":357.2633,"ARG_OF_PERICENTER":74.8364,"MEAN_ANOMALY":285.2948,"EPHEMERIS_TYPE":0,"CLASSIFICATION_TYPE":"U","NORAD_CAT_ID":50485,"ELEMENT_SET_NO":999,"REV_AT_EPOCH":20750,"BSTAR":0.00014488067,"MEAN_MOTION_DOT":7.0e-7,"MEAN_MOTION_DDOT":0},{"OBJECT_NAME":"ONEWEB-0406","OBJECT_ID":"2021-132T","EPOCH":"2026-02-27T06:04:55.771392","MEAN_MOTION":13.1868695,"ECCENTRICITY":0.00020666,"INCLINATION":87.9245,"RA_OF_ASC_NODE":357.2902,"ARG_OF_PERICENTER":63.9264,"MEAN_ANOMALY":296.208,"EPHEMERIS_TYPE":0,"CLASSIFICATION_TYPE":"U","NORAD_CAT_ID":50486,"ELEMENT_SET_NO":999,"REV_AT_EPOCH":20713,"BSTAR":4.7536005e-5,"MEAN_MOTION_DOT":3.2e-7,"MEAN_MOTION_DDOT":0},{"OBJECT_NAME":"ONEWEB-0407","OBJECT_ID":"2021-132U","EPOCH":"2026-02-27T05:55:25.543488","MEAN_MOTION":13.18685639,"ECCENTRICITY":0.00017182,"INCLINATION":87.9247,"RA_OF_ASC_NODE":357.275,"ARG_OF_PERICENTER":84.3239,"MEAN_ANOMALY":275.8089,"EPHEMERIS_TYPE":0,"CLASSIFICATION_TYPE":"U","NORAD_CAT_ID":50487,"ELEMENT_SET_NO":999,"REV_AT_EPOCH":20707,"BSTAR":4.92486e-7,"MEAN_MOTION_DOT":1.3e-7,"MEAN_MOTION_DDOT":0},{"OBJECT_NAME":"ONEWEB-0409","OBJECT_ID":"2021-132V","EPOCH":"2026-02-27T05:36:21.400128","MEAN_MOTION":13.11420609,"ECCENTRICITY":0.00020581,"INCLINATION":87.8853,"RA_OF_ASC_NODE":42.9157,"ARG_OF_PERICENTER":76.2837,"MEAN_ANOMALY":283.852,"EPHEMERIS_TYPE":0,"CLASSIFICATION_TYPE":"U","NORAD_CAT_ID":50488,"ELEMENT_SET_NO":999,"REV_AT_EPOCH":20117,"BSTAR":0.00062278163,"MEAN_MOTION_DOT":2.33e-6,"MEAN_MOTION_DDOT":0},{"OBJECT_NAME":"ONEWEB-0412","OBJECT_ID":"2021-132W","EPOCH":"2026-02-27T05:38:47.906880","MEAN_MOTION":13.18685805,"ECCENTRICITY":0.00015101,"INCLINATION":87.9247,"RA_OF_ASC_NODE":357.2904,"ARG_OF_PERICENTER":78.7935,"MEAN_ANOMALY":281.3367,"EPHEMERIS_TYPE":0,"CLASSIFICATION_TYPE":"U","NORAD_CAT_ID":50489,"ELEMENT_SET_NO":999,"REV_AT_EPOCH":20716,"BSTAR":0.00013355267,"MEAN_MOTION_DOT":6.6e-7,"MEAN_MOTION_DDOT":0},{"OBJECT_NAME":"ONEWEB-0413","OBJECT_ID":"2021-132X","EPOCH":"2026-02-27T05:45:55.951488","MEAN_MOTION":13.18685501,"ECCENTRICITY":0.00015993,"INCLINATION":87.9234,"RA_OF_ASC_NODE":357.2955,"ARG_OF_PERICENTER":85.4372,"MEAN_ANOMALY":274.6943,"EPHEMERIS_TYPE":0,"CLASSIFICATION_TYPE":"U","NORAD_CAT_ID":50490,"ELEMENT_SET_NO":999,"REV_AT_EPOCH":20710,"BSTAR":7.8938325e-5,"MEAN_MOTION_DOT":4.4e-7,"MEAN_MOTION_DDOT":0},{"OBJECT_NAME":"ONEWEB-0414","OBJECT_ID":"2021-132Y","EPOCH":"2026-02-27T05:24:32.568480","MEAN_MOTION":13.18687746,"ECCENTRICITY":0.0001685,"INCLINATION":87.9246,"RA_OF_ASC_NODE":357.2686,"ARG_OF_PERICENTER":75.0155,"MEAN_ANOMALY":285.1163,"EPHEMERIS_TYPE":0,"CLASSIFICATION_TYPE":"U","NORAD_CAT_ID":50491,"ELEMENT_SET_NO":999,"REV_AT_EPOCH":20713,"BSTAR":0.00010011433,"MEAN_MOTION_DOT":5.2e-7,"MEAN_MOTION_DDOT":0},{"OBJECT_NAME":"ONEWEB-0417","OBJECT_ID":"2021-132Z","EPOCH":"2026-02-27T05:36:25.528320","MEAN_MOTION":13.18685026,"ECCENTRICITY":0.00020089,"INCLINATION":87.9233,"RA_OF_ASC_NODE":357.2967,"ARG_OF_PERICENTER":72.471,"MEAN_ANOMALY":287.6641,"EPHEMERIS_TYPE":0,"CLASSIFICATION_TYPE":"U","NORAD_CAT_ID":50492,"ELEMENT_SET_NO":999,"REV_AT_EPOCH":20711,"BSTAR":0.00015079956,"MEAN_MOTION_DOT":7.2e-7,"MEAN_MOTION_DDOT":0},{"OBJECT_NAME":"ONEWEB-0418","OBJECT_ID":"2021-132AA","EPOCH":"2026-02-27T05:50:27.582720","MEAN_MOTION":13.18688922,"ECCENTRICITY":0.00019992,"INCLINATION":87.9245,"RA_OF_ASC_NODE":357.2835,"ARG_OF_PERICENTER":68.3414,"MEAN_ANOMALY":291.7931,"EPHEMERIS_TYPE":0,"CLASSIFICATION_TYPE":"U","NORAD_CAT_ID":50493,"ELEMENT_SET_NO":999,"REV_AT_EPOCH":20717,"BSTAR":3.8691681e-5,"MEAN_MOTION_DOT":2.8e-7,"MEAN_MOTION_DDOT":0},{"OBJECT_NAME":"ONEWEB-0419","OBJECT_ID":"2021-132AB","EPOCH":"2026-02-27T06:16:48.652608","MEAN_MOTION":13.18685608,"ECCENTRICITY":0.00021175,"INCLINATION":87.9244,"RA_OF_ASC_NODE":357.2798,"ARG_OF_PERICENTER":77.35,"MEAN_ANOMALY":282.7869,"EPHEMERIS_TYPE":0,"CLASSIFICATION_TYPE":"U","NORAD_CAT_ID":50494,"ELEMENT_SET_NO":999,"REV_AT_EPOCH":20709,"BSTAR":0.00010471682,"MEAN_MOTION_DOT":5.4e-7,"MEAN_MOTION_DDOT":0},{"OBJECT_NAME":"ONEWEB-0420","OBJECT_ID":"2021-132AC","EPOCH":"2026-02-27T05:26:55.424832","MEAN_MOTION":13.18685341,"ECCENTRICITY":0.00018308,"INCLINATION":87.9243,"RA_OF_ASC_NODE":357.2987,"ARG_OF_PERICENTER":83.9567,"MEAN_ANOMALY":276.1774,"EPHEMERIS_TYPE":0,"CLASSIFICATION_TYPE":"U","NORAD_CAT_ID":50495,"ELEMENT_SET_NO":999,"REV_AT_EPOCH":20708,"BSTAR":7.1961245e-5,"MEAN_MOTION_DOT":4.1e-7,"MEAN_MOTION_DDOT":0},{"OBJECT_NAME":"ONEWEB-0421","OBJECT_ID":"2021-132AD","EPOCH":"2026-02-27T05:17:25.220256","MEAN_MOTION":13.18686063,"ECCENTRICITY":0.00015774,"INCLINATION":87.9241,"RA_OF_ASC_NODE":357.2924,"ARG_OF_PERICENTER":74.9644,"MEAN_ANOMALY":285.1662,"EPHEMERIS_TYPE":0,"CLASSIFICATION_TYPE":"U","NORAD_CAT_ID":50496,"ELEMENT_SET_NO":999,"REV_AT_EPOCH":20712,"BSTAR":0.00020455532,"MEAN_MOTION_DOT":9.4e-7,"MEAN_MOTION_DDOT":0}]
