ONEWEB-0400             
1 50480U 21132M   26058.21549035  .00000022  00000+0  23609-4 0  9993
2 50480  87.9245 357.2786 0001988  82.5779 277.5579 13.18685840207113
ONEWEB-0401             
1 50481U 21132N   26058.26001518  .00000043  00000+0  75314-4 0  9991
2 50481  87.9245 357.2649 0001626  81.4463 278.6853 13.18686481207129
ONEWEB-0402             
1 50482U 21132P   26058.22373140 -.00000009  00000+0 -55757-4 0  9994
2 50482  87.9244 357.2638 0001286  86.2258 273.9021 13.18686454207141
ONEWEB-0403             
1 50483U 21132Q   26058.24847658  .00000017  00000+0  10864-4 0  9994
2 50483  87.9244 357.2818 0001841  75.7006 284.4330 13.18685848207105
ONEWEB-0404             
1 50484U 21132R   26058.23527055  .00000261  00000+0  70039-3 0  9990
2 50484  87.8845  42.9354 0001920  74.3598 285.7742 13.11419175201289
ONEWEB-0405             
1 50485U 21132S   26058.26331823  .00000070  00000+0  14488-3 0  9994
2 50485  87.9243 357.2633 0001626  74.8364 285.2948 13.18684943207502
ONEWEB-0406             
1 50486U 21132T   26058.25342328  .00000032  00000+0  47536-4 0  9995
2 50486  87.9245 357.2902 0002066  63.9264 296.2080 13.18686950207139
ONEWEB-0407             
1 50487U 21132U   26058.24682342  .00000013  00000+0  49249-6 0  9992
2 50487  87.9247 357.2750 0001718  84.3239 275.8089 13.18685639207073
ONEWEB-0409             
1 50488U 21132V   26058.23358102  .00000233  00000+0  62278-3 0  9994
2 50488  87.8853  42.9157 0002058  76.2837 283.8520 13.11420609201178
ONEWEB-0412             
1 50489U 21132W   26058.23527670  .00000066  00000+0  13355-3 0  9999
2 50489  87.9247 357.2904 0001510  78.7935 281.3367 13.18685805207162
ONEWEB-0413             
1 50490U 21132X   26058.24023092  .00000044  00000+0  78938-4 0  9996
2 50490  87.9234 357.2955 0001599  85.4372 274.6943 13.18685501207105
ONEWEB-0414             
1 50491U 21132Y   26058.22537695  .00000052  00000+0  10011-3 0  9990
2 50491  87.9246 357.2686 0001685  75.0155 285.1163 13.18687746207137
ONEWEB-0417             
1 50492U 21132Z   26058.23362880  .00000072  00000+0  15080-3 0  9997
2 50492  87.9233 357.2967 0002008  72.4710 287.6641 13.18685026207119
ONEWEB-0418             
1 50493U 21132AA  26058.24337480  .00000028  00000+0  38692-4 0  9993
2 50493  87.9245 357.2835 0001999  68.3414 291.7931 13.18688922207172
ONEWEB-0419             
1 50494U 21132AB  26058.26167422  .00000054  00000+0  10472-3 0  9997
2 50494  87.9244 357.2798 0002117  77.3500 282.7869 13.18685608207098
ONEWEB-0420             
1 50495U 21132AC  26058.22703038  .00000041  00000+0  71961-4 0  9990
2 50495  87.9243 357.2987 0001830  83.9567 276.1774 13.18685341207080
ONEWEB-0421             
1 50496U 21132AD  26058.22043079  .00000094  00000+0  20456-3 0  9993
2 50496  87.9241 357.2924 0001577  74.9644 285.1662 13.18686063207127
